{
  "norad_id": 63704,
  "name": "STARLINK-33937",
  "history": [
    {
      "epoch": "2026-03-28T19:51:20.517120",
      "apogee_km": 476.23877722988254,
      "perigee_km": 474.19839620460607,
      "latitude_deg": 51.36316842749698,
      "longitude_deg": -90.17720320029184,
      "semi_major_axis_km": 6853.3555867172445,
      "eccentricity": 0.00014886,
      "inclination_deg": 53.1596,
      "raan_deg": 130.38,
      "arg_perigee_deg": 84.8219,
      "mean_anomaly_deg": 275.2952,
      "mean_motion_rev_day": 15.30198822
    }
  ]
}