{"fetched_at":"2026-03-29T16:36:15Z","count":15609,"tles":[{"name":"STARLINK-33937","line1":"1 63704U 25087H   26087.82732080  .00018606  00000+0  63875-3 0  9997","line2":"2 63704  53.1596 130.3800 0001488  84.8219 275.2952 15.30198822 52131","category":"Starlink"}]}